{"type": "FeatureCollection", "features": [ {"type": "Feature", "properties": {"norad_id": 33674, "name": "FENGYUN 1C DEB", "group": "fengyun-1c-debris", "lat": 35.94725530327245, "lon": -132.55705913088985, "alt_km": 951.4451488713512, "timestamp": "2025-12-17T15:50:10.066841+00:00", "meta": {"OBJECT_NAME": "FENGYUN 1C DEB", "OBJECT_ID": "1999-025DFK", "EPOCH": "2025-12-16T02:29:49.222752", "MEAN_MOTION": 13.76903251, "ECCENTRICITY": 0.02115603, "INCLINATION": 98.6065, "RA_OF_ASC_NODE": 39.7288, "ARG_OF_PERICENTER": 231.1714, "MEAN_ANOMALY": 127.0386, "EPHEMERIS_TYPE": 0, "CLASSIFICATION_TYPE": "U", "NORAD_CAT_ID": 33674, "ELEMENT_SET_NO": 999, "REV_AT_EPOCH": 88411, "BSTAR": 0.0016598596, "MEAN_MOTION_DOT": 1.89e-05, "MEAN_MOTION_DDOT": 0}, "tle": {"line1": "1 33674U 99025DFK 25350.10404193  .00001890  00000+0  16599-2 0  9994", "line2": "2 33674  98.6065  39.7288 0211560 231.1714 127.0386 13.76903251884116"}}, "geometry": {"type": "Point", "coordinates": [-132.55705913088985, 35.94725530327245]}}, {"type": "Feature", "properties": {"norad_id": 33676, "name": "FENGYUN 1C DEB", "group": "fengyun-1c-debris", "lat": 71.06738869118944, "lon": -11.422096988496978, "alt_km": 626.6069594543633, "timestamp": "2025-12-17T15:50:10.066851+00:00", "meta": {"OBJECT_NAME": "FENGYUN 1C DEB", "OBJECT_ID": "1999-025DFM", "EPOCH": "2025-12-16T19:26:06.642240", "MEAN_MOTION": 14.35566094, "ECCENTRICITY": 0.02049762, "INCLINATION": 99.0958, "RA_OF_ASC_NODE": 15.5241, "ARG_OF_PERICENTER": 57.7777, "MEAN_ANOMALY": 304.3097, "EPHEMERIS_TYPE": 0, "CLASSIFICATION_TYPE": "U", "NORAD_CAT_ID": 33676, "ELEMENT_SET_NO": 999, "REV_AT_EPOCH": 65369, "BSTAR": 0.00012239616, "MEAN_MOTION_DOT": 3.92e-06, "MEAN_MOTION_DDOT": 0}, "tle": {"line1": "1 33676U 99025DFM 25350.80979910  .00000392  00000+0  12240-3 0  9993", "line2": "2 33676  99.0958  15.5241 0204976  57.7777 304.3097 14.35566094653691"}}, "geometry": {"type": "Point", "coordinates": [-11.422096988496978, 71.06738869118944]}}, {"type": "Feature", "properties": {"norad_id": 33678, "name": "FENGYUN 1C DEB", "group": "fengyun-1c-debris", "lat": -45.65925930891959, "lon": -131.87127605987024, "alt_km": 595.4329420548947, "timestamp": "2025-12-17T15:50:10.066862+00:00", "meta": {"OBJECT_NAME": "FENGYUN 1C DEB", "OBJECT_ID": "1999-025DFP", "EPOCH": "2025-12-16T22:11:44.071296", "MEAN_MOTION": 14.47371153, "ECCENTRICITY": 0.02051138, "INCLINATION": 99.044, "RA_OF_ASC_NODE": 56.7232, "ARG_OF_PERICENTER": 224.2171, "MEAN_ANOMALY": 134.2471, "EPHEMERIS_TYPE": 0, "CLASSIFICATION_TYPE": "U", "NORAD_CAT_ID": 33678, "ELEMENT_SET_NO": 999, "REV_AT_EPOCH": 95156, "BSTAR": 0.00059780578, "MEAN_MOTION_DOT": 2.792e-05, "MEAN_MOTION_DDOT": 0}, "tle": {"line1": "1 33678U 99025DFP 25350.92481564  .00002792  00000+0  59781-3 0  9998", "line2": "2 33678  99.0440  56.7232 0205113 224.2171 134.2471 14.47371153951565"}}, "geometry": {"type": "Point", "coordinates": [-131.87127605987024, -45.65925930891959]}}, {"type": "Feature", "properties": {"norad_id": 33679, "name": "FENGYUN 1C DEB", "group": "fengyun-1c-debris", "lat": 10.387108947286192, "lon": 57.57724605270733, "alt_km": 552.5837312773665, "timestamp": "2025-12-17T15:50:10.066872+00:00", "meta": {"OBJECT_NAME": "FENGYUN 1C DEB", "OBJECT_ID": "1999-025DFQ", "EPOCH": "2025-12-15T03:03:55.617120", "MEAN_MOTION": 15.0272184, "ECCENTRICITY": 0.01481853, "INCLINATION": 99.352, "RA_OF_ASC_NODE": 56.2556, "ARG_OF_PERICENTER": 292.0028, "MEAN_ANOMALY": 66.5504, "EPHEMERIS_TYPE": 0, "CLASSIFICATION_TYPE": "U", "NORAD_CAT_ID": 33679, "ELEMENT_SET_NO": 999, "REV_AT_EPOCH": 94159, "BSTAR": 0.00089369898, "MEAN_MOTION_DOT": 0.000151, "MEAN_MOTION_DDOT": 0}, "tle": {"line1": "1 33679U 99025DFQ 25349.12772705  .00015100  00000+0  89370-3 0  9993", "line2": "2 33679  99.3520  56.2556 0148185 292.0028  66.5504 15.02721840941591"}}, "geometry": {"type": "Point", "coordinates": [57.57724605270733, 10.387108947286192]}}, {"type": "Feature", "properties": {"norad_id": 33682, "name": "FENGYUN 1C DEB", "group": "fengyun-1c-debris", "lat": -80.53194007311073, "lon": 123.28831072790751, "alt_km": 828.8166454938691, "timestamp": "2025-12-17T15:50:10.066882+00:00", "meta": {"OBJECT_NAME": "FENGYUN 1C DEB", "OBJECT_ID": "1999-025DFT", "EPOCH": "2025-12-17T02:47:21.159168", "MEAN_MOTION": 14.26709182, "ECCENTRICITY": 0.0028266, "INCLINATION": 99.422, "RA_OF_ASC_NODE": 38.0287, "ARG_OF_PERICENTER": 70.0998, "MEAN_ANOMALY": 290.3222, "EPHEMERIS_TYPE": 0, "CLASSIFICATION_TYPE": "U", "NORAD_CAT_ID": 33682, "ELEMENT_SET_NO": 999, "REV_AT_EPOCH": 91760, "BSTAR": 0.0011273438, "MEAN_MOTION_DOT": 2.689e-05, "MEAN_MOTION_DDOT": 0}, "tle": {"line1": "1 33682U 99025DFT 25351.11621712  .00002689  00000+0  11273-2 0  9994", "line2": "2 33682  99.4220  38.0287 0028266  70.0998 290.3222 14.26709182917608"}}, "geometry": {"type": "Point", "coordinates": [123.28831072790751, -80.53194007311073]}}, {"type": "Feature", "properties": {"norad_id": 33684, "name": "FENGYUN 1C DEB", "group": "fengyun-1c-debris", "lat": -0.6360775112458256, "lon": 47.92470456624301, "alt_km": 485.3526226334734, "timestamp": "2025-12-17T15:50:10.066893+00:00", "meta": {"OBJECT_NAME": "FENGYUN 1C DEB", "OBJECT_ID": "1999-025DFV", "EPOCH": "2025-12-16T02:20:54.296160", "MEAN_MOTION": 14.73183419, "ECCENTRICITY": 0.028705, "INCLINATION": 99.0658, "RA_OF_ASC_NODE": 46.0777, "ARG_OF_PERICENTER": 330.0778, "MEAN_ANOMALY": 28.4279, "EPHEMERIS_TYPE": 0, "CLASSIFICATION_TYPE": "U", "NORAD_CAT_ID": 33684, "ELEMENT_SET_NO": 999, "REV_AT_EPOCH": 93038, "BSTAR": 0.00063530626, "MEAN_MOTION_DOT": 7.879e-05, "MEAN_MOTION_DDOT": 0}, "tle": {"line1": "1 33684U 99025DFV 25350.09785065  .00007879  00000+0  63531-3 0  9995", "line2": "2 33684  99.0658  46.0777 0287050 330.0778  28.4279 14.73183419930380"}}, "geometry": {"type": "Point", "coordinates": [47.92470456624301, -0.6360775112458256]}}, {"type": "Feature", "properties": {"norad_id": 33687, "name": "FENGYUN 1C DEB", "group": "fengyun-1c-debris", "lat": -53.69221558204919, "lon": 165.87093069324527, "alt_km": 508.3512298909827, "timestamp": "2025-12-17T15:50:10.066903+00:00", "meta": {"OBJECT_NAME": "FENGYUN 1C DEB", "OBJECT_ID": "1999-025DFY", "EPOCH": "2025-12-16T18:14:40.406496", "MEAN_MOTION": 15.18952421, "ECCENTRICITY": 0.01143186, "INCLINATION": 98.9961, "RA_OF_ASC_NODE": 357.2522, "ARG_OF_PERICENTER": 322.8022, "MEAN_ANOMALY": 36.5326, "EPHEMERIS_TYPE": 0, "CLASSIFICATION_TYPE": "U", "NORAD_CAT_ID": 33687, "ELEMENT_SET_NO": 999, "REV_AT_EPOCH": 71569, "BSTAR": 0.0012331719, "MEAN_MOTION_DOT": 0.00030657, "MEAN_MOTION_DDOT": 0}, "tle": {"line1": "1 33687U 99025DFY 25350.76018989  .00030657  00000+0  12332-2 0  9998", "line2": "2 33687  98.9961 357.2522 0114318 322.8022  36.5326 15.18952421715695"}}, "geometry": {"type": "Point", "coordinates": [165.87093069324527, -53.69221558204919]}}, {"type": "Feature", "properties": {"norad_id": 33688, "name": "FENGYUN 1C DEB", "group": "fengyun-1c-debris", "lat": 12.09636860337891, "lon": -84.43480889757542, "alt_km": 734.6890781120937, "timestamp": "2025-12-17T15:50:10.066913+00:00", "meta": {"OBJECT_NAME": "FENGYUN 1C DEB", "OBJECT_ID": "1999-025DFZ", "EPOCH": "2025-12-16T05:50:11.318784", "MEAN_MOTION": 14.45667107, "ECCENTRICITY": 0.00540402, "INCLINATION": 99.3499, "RA_OF_ASC_NODE": 91.9821, "ARG_OF_PERICENTER": 252.6682, "MEAN_ANOMALY": 106.8591, "EPHEMERIS_TYPE": 0, "CLASSIFICATION_TYPE": "U", "NORAD_CAT_ID": 33688, "ELEMENT_SET_NO": 999, "REV_AT_EPOCH": 91532, "BSTAR": 0.0020438807, "MEAN_MOTION_DOT": 7.315e-05, "MEAN_MOTION_DDOT": 0}, "tle": {"line1": "1 33688U 99025DFZ 25350.24318656  .00007315  00000+0  20439-2 0  9998", "line2": "2 33688  99.3499  91.9821 0054040 252.6682 106.8591 14.45667107915328"}}, "geometry": {"type": "Point", "coordinates": [-84.43480889757542, 12.09636860337891]}}, {"type": "Feature", "properties": {"norad_id": 33689, "name": "FENGYUN 1C DEB", "group": "fengyun-1c-debris", "lat": -16.00238480423799, "lon": 176.82261348604507, "alt_km": 728.3533392971449, "timestamp": "2025-12-17T15:50:10.066924+00:00", "meta": {"OBJECT_NAME": "FENGYUN 1C DEB", "OBJECT_ID": "1999-025DGA", "EPOCH": "2025-12-07T05:58:19.079616", "MEAN_MOTION": 14.45083851, "ECCENTRICITY": 0.00480135, "INCLINATION": 99.5648, "RA_OF_ASC_NODE": 347.8823, "ARG_OF_PERICENTER": 167.5369, "MEAN_ANOMALY": 254.9476, "EPHEMERIS_TYPE": 0, "CLASSIFICATION_TYPE": "U", "NORAD_CAT_ID": 33689, "ELEMENT_SET_NO": 999, "REV_AT_EPOCH": 69451, "BSTAR": 0.0017194976, "MEAN_MOTION_DOT": 6.046e-05, "MEAN_MOTION_DDOT": 0}, "tle": {"line1": "1 33689U 99025DGA 25341.24883194  .00006046  00000+0  17195-2 0  9998", "line2": "2 33689  99.5648 347.8823 0048013 167.5369 254.9476 14.45083851694511"}}, "geometry": {"type": "Point", "coordinates": [176.82261348604507, -16.00238480423799]}}, {"type": "Feature", "properties": {"norad_id": 33690, "name": "FENGYUN 1C DEB", "group": "fengyun-1c-debris", "lat": -54.53319780077833, "lon": 102.43071604694121, "alt_km": 727.4671968005823, "timestamp": "2025-12-17T15:50:10.066934+00:00", "meta": {"OBJECT_NAME": "FENGYUN 1C DEB", "OBJECT_ID": "1999-025DGB", "EPOCH": "2025-12-16T05:20:53.420928", "MEAN_MOTION": 14.51511082, "ECCENTRICITY": 0.00301791, "INCLINATION": 98.6135, "RA_OF_ASC_NODE": 88.6744, "ARG_OF_PERICENTER": 38.6259, "MEAN_ANOMALY": 321.7086, "EPHEMERIS_TYPE": 0, "CLASSIFICATION_TYPE": "U", "NORAD_CAT_ID": 33690, "ELEMENT_SET_NO": 999, "REV_AT_EPOCH": 93270, "BSTAR": 0.0014564054, "MEAN_MOTION_DOT": 5.813e-05, "MEAN_MOTION_DDOT": 0}, "tle": {"line1": "1 33690U 99025DGB 25350.22284052  .00005813  00000+0  14564-2 0  9994", "line2": "2 33690  98.6135  88.6744 0030179  38.6259 321.7086 14.51511082932701"}}, "geometry": {"type": "Point", "coordinates": [102.43071604694121, -54.53319780077833]}}]}